NORAD_CAT_ID,OBJECT_NAME,OBJECT_TYPE,EPOCH,MEAN_MOTION,ECCENTRICITY,INCLINATION,RA_OF_ASC_NODE,ARG_OF_PERICENTER,MEAN_ANOMALY,BSTAR,MEAN_MOTION_DOT,MEAN_MOTION_DDOT,TLE_LINE0,TLE_LINE1,TLE_LINE2,SEMIMAJOR_AXIS,PERIOD,APOGEE,PERIGEE,DECAYED
55778.0,STARLINK-5816,PAYLOAD,2023-11-21 18:19:30,14.98337062,0.0002953,69.9989,179.5437,265.5505,94.5316,0.00018397,2.103e-05,0.0,0 STARLINK-5816,1 55778U 23028AP  23325.76354914  .00002103  00000-0  18397-3 0  9998,2 55778  69.9989 179.5437 0002953 265.5505  94.5316 14.98337062 40877,6950.171,96.107,574.088,569.984,0.0
55778.0,STARLINK-5816,PAYLOAD,2023-11-22 00:44:04,14.98322772,0.0002903,69.9988,178.8705,275.7832,84.2996,1.221e-05,5.3e-07,0.0,0 STARLINK-5816,1 55778U 23028AP  23326.03060378  .00000053  00000-0  12210-4 0  9998,2 55778  69.9988 178.8705 0002903 275.7832  84.2996 14.98322772 40914,6950.215,96.107,574.098,570.063,0.0
55778.0,STARLINK-5816,PAYLOAD,2023-11-22 13:33:08,14.98331491,0.0003031,69.9983,177.5223,266.3313,93.75,-6.8989e-05,-9.16e-06,0.0,0 STARLINK-5816,1 55778U 23028AP  23326.56468005 -.00000916  00000-0 -68989-4 0  9999,2 55778  69.9983 177.5223 0003031 266.3313  93.7500 14.98331491 40995,6950.188,96.107,574.16,569.947,0.0
55778.0,STARLINK-5816,PAYLOAD,2023-11-22 19:57:40,14.98335149,0.0002934,69.9987,176.8508,267.6797,92.4026,-9.6194e-06,-2.08e-06,0.0,0 STARLINK-5816,1 55778U 23028AP  23326.83171532 -.00000208  00000-0 -96194-5 0  9999,2 55778  69.9987 176.8508 0002934 267.6797  92.4026 14.98335149 41037,6950.177,96.107,574.081,570.003,0.0
55778.0,STARLINK-5816,PAYLOAD,2023-11-22 21:33:48,14.98336576,0.0002612,69.9991,176.6822,256.4154,103.6714,-4.5795e-06,-1.48e-06,0.0,0 STARLINK-5816,1 55778U 23028AP  23326.89847367 -.00000148  00000-0 -45795-5 0  9995,2 55778  69.9991 176.6822 0002612 256.4154 103.6714 14.98336576 41040,6950.173,96.107,573.853,570.222,0.0
55778.0,STARLINK-5816,PAYLOAD,2023-11-23 00:46:04,14.98337181,0.000261,69.9992,176.3457,259.9426,100.1439,5.5839e-06,-2.6e-07,0.0,0 STARLINK-5816,1 55778U 23028AP  23327.03199253 -.00000026  00000-0  55839-5 0  9990,2 55778  69.9992 176.3457 0002610 259.9426 100.1439 14.98337181 41061,6950.171,96.107,573.85,570.222,0.0
55778.0,STARLINK-5816,PAYLOAD,2023-11-23 19:59:40,14.98341643,0.0002564,69.9991,174.3258,255.3151,104.7724,-4.0651e-05,-5.78e-06,0.0,0 STARLINK-5816,1 55778U 23028AP  23327.83310612 -.00000578  00000-0 -40651-4 0  9990,2 55778  69.9991 174.3258 0002564 255.3151 104.7724 14.98341643 41188,6950.157,96.106,573.804,570.24,0.0
55778.0,STARLINK-5816,PAYLOAD,2023-11-23 21:35:48,14.98340792,0.0002722,69.9987,174.1571,263.8685,96.2164,-4.5962e-05,-6.41e-06,0.0,0 STARLINK-5816,1 55778U 23028AP  23327.89986670 -.00000641  00000-0 -45962-4 0  9990,2 55778  69.9987 174.1571 0002722 263.8685  96.2164 14.98340792 41199,6950.16,96.106,573.916,570.133,0.0
55778.0,STARLINK-5816,PAYLOAD,2023-11-23 23:11:56,14.9834092,0.0002658,69.9988,173.9887,261.2085,98.8773,-5.0628e-05,-6.97e-06,0.0,0 STARLINK-5816,1 55778U 23028AP  23327.96662632 -.00000697  00000-0 -50628-4 0  9993,2 55778  69.9988 173.9887 0002658 261.2085  98.8773 14.98340920 41200,6950.159,96.106,573.871,570.177,0.0
55778.0,STARLINK-5816,PAYLOAD,2023-11-24 20:01:41,14.98338045,0.0002706,69.9987,171.8005,264.0851,95.9999,-2.684e-06,-1.25e-06,0.0,0 STARLINK-5816,1 55778U 23028AP  23328.83450376 -.00000125  00000-0 -26840-5 0  9996,2 55778  69.9987 171.8005 0002706 264.0851  95.9999 14.98338045 41331,6950.168,96.106,573.914,570.152,0.0
55778.0,STARLINK-5816,PAYLOAD,2023-11-24 21:37:49,14.98337714,0.0002715,69.9987,171.6321,264.5682,95.5167,-6.9389e-06,-1.76e-06,0.0,0 STARLINK-5816,1 55778U 23028AP  23328.90126375 -.00000176  00000-0 -69389-5 0  9994,2 55778  69.9987 171.6321 0002715 264.5682  95.5167 14.98337714 41343,6950.169,96.107,573.921,570.147,0.0
55778.0,STARLINK-5816,PAYLOAD,2023-11-25 13:39:11,14.98314838,0.000171,70.002,169.9528,261.5319,98.5646,-0.00015135,-1.897e-05,0.0,0 STARLINK-5816,1 55778U 23028AP  23329.56888553 -.00001897  00000-0 -15135-3 0  9999,2 55778  70.0020 169.9528 0001710 261.5319  98.5646 14.98314838 41449,6950.24,96.108,573.293,570.916,0.0
55778.0,STARLINK-5816,PAYLOAD,2023-11-25 21:39:52,14.98315125,0.0002367,69.9998,169.1091,247.2905,112.8004,-0.00018061,-2.246e-05,0.0,0 STARLINK-5816,1 55778U 23028AP  23329.90268741 -.00002246  00000-0 -18061-3 0  9998,2 55778  69.9998 169.1091 0002367 247.2905 112.8004 14.98315125 41491,6950.239,96.108,573.749,570.459,0.0
55778.0,STARLINK-5816,PAYLOAD,2023-11-25 23:15:59,14.98326964,0.0002958,69.9981,168.9379,269.5194,90.5626,-7.0783e-05,-9.37e-06,0.0,0 STARLINK-5816,1 55778U 23028AP  23329.96943644 -.00000937  00000-0 -70783-4 0  9991,2 55778  69.9981 168.9379 0002958 269.5194  90.5626 14.98326964 41509,6950.202,96.107,574.123,570.011,0.0
55778.0,STARLINK-5816,PAYLOAD,2023-11-26 13:41:11,14.98330724,0.0003029,69.9979,167.4223,274.0143,86.067,-8.9921e-06,-2e-06,0.0,0 STARLINK-5816,1 55778U 23028AP  23330.57027338 -.00000200  00000-0 -89921-5 0  9991,2 55778  69.9979 167.4223 0003029 274.0143  86.0670 14.98330724 41590,6950.191,96.107,574.161,569.95,0.0
55778.0,STARLINK-5816,PAYLOAD,2023-11-26 21:41:51,14.98330749,0.000277,69.9987,166.5804,276.123,83.9613,3.5712e-05,3.33e-06,0.0,0 STARLINK-5816,1 55778U 23028AP  23330.90407339  .00000333  00000-0  35712-4 0  9994,2 55778  69.9987 166.5804 0002770 276.1230  83.9613 14.98330749 41642,6950.191,96.107,573.981,570.13,0.0
55778.0,STARLINK-5816,PAYLOAD,2023-11-26 23:17:59,14.98333334,0.0002856,69.9986,166.4139,270.5525,89.5307,4.0354e-05,3.89e-06,0.0,0 STARLINK-5816,1 55778U 23028AP  23330.97083053  .00000389  00000-0  40354-4 0  9993,2 55778  69.9986 166.4139 0002856 270.5525  89.5307 14.98333334 41657,6950.183,96.107,574.033,570.063,0.0
55778.0,STARLINK-5816,PAYLOAD,2023-11-27 13:43:12,14.98319901,0.0002603,69.999,164.8998,260.4904,99.5961,0.0003721,4.348e-05,0.0,0 STARLINK-5816,1 55778U 23028AP  23331.57166997  .00004348  00000-0  37210-3 0  9994,2 55778  69.9990 164.8998 0002603 260.4904  99.5961 14.98319901 41747,6950.224,96.108,573.898,570.28,0.0
55778.0,STARLINK-5816,PAYLOAD,2023-11-27 21:43:52,14.98323536,0.0002584,69.9992,164.058,261.6066,98.48,0.00037365,4.367e-05,0.0,0 STARLINK-5816,1 55778U 23028AP  23331.90546894  .00004367  00000-0  37365-3 0  9991,2 55778  69.9992 164.0580 0002584 261.6066  98.4800 14.98323536 41792,6950.213,96.107,573.874,570.282,0.0
55778.0,STARLINK-5816,PAYLOAD,2023-11-27 23:20:00,14.98324219,0.0002575,69.9992,163.8897,261.4796,98.6071,0.00037224,4.351e-05,0.0,0 STARLINK-5816,1 55778U 23028AP  23331.97222869  .00004351  00000-0  37224-3 0  9998,2 55778  69.9992 163.8897 0002575 261.4796  98.6071 14.98324219 41801,6950.211,96.107,573.865,570.286,0.0
55778.0,STARLINK-5816,PAYLOAD,2023-11-28 13:45:12,14.98341157,0.0002814,69.9994,162.3751,263.9839,96.0999,7.1314e-05,7.58e-06,0.0,0 STARLINK-5816,1 55778U 23028AP  23332.57306124  .00000758  00000-0  71314-4 0  9998,2 55778  69.9994 162.3751 0002814 263.9839  96.0999 14.98341157 41897,6950.158,96.106,573.979,570.068,0.0
55778.0,STARLINK-5816,PAYLOAD,2023-11-28 20:09:44,14.98341353,0.0002858,69.9996,161.702,264.7714,95.3119,7.6868e-05,8.25e-06,0.0,0 STARLINK-5816,1 55778U 23028AP  23332.84009881  .00000825  00000-0  76868-4 0  9992,2 55778  69.9996 161.7020 0002858 264.7714  95.3119 14.98341353 41939,6950.158,96.106,574.009,570.036,0.0
55778.0,STARLINK-5816,PAYLOAD,2023-11-29 13:47:13,14.9833761,0.0002568,70.0003,159.8515,258.2071,101.88,-5.4094e-05,-7.38e-06,0.0,0 STARLINK-5816,1 55778U 23028AP  23333.57445949 -.00000738  00000-0 -54094-4 0  9994,2 55778  70.0003 159.8515 0002568 258.2071 101.8800 14.98337610 42044,6950.169,96.107,573.819,570.25,0.0
55778.0,STARLINK-5816,PAYLOAD,2023-11-29 20:11:45,14.98334806,0.0002693,70.0,159.1779,257.3418,102.744,-9.1365e-05,-1.183e-05,0.0,0 STARLINK-5816,1 55778U 23028AP  23333.84150087 -.00001183  00000-0 -91365-4 0  9997,2 55778  70.0000 159.1779 0002693 257.3418 102.7440 14.98334806 42088,6950.178,96.107,573.915,570.171,0.0
55778.0,STARLINK-5816,PAYLOAD,2023-11-30 21:49:54,14.98332137,0.0002724,69.9997,156.4845,257.4996,102.5858,-8.3429e-05,-1.088e-05,0.0,0 STARLINK-5816,1 55778U 23028AP  23334.90965855 -.00001088  00000-0 -83429-4 0  9998,2 55778  69.9997 156.4845 0002724 257.4996 102.5858 14.98332137 42245,6950.186,96.107,573.945,570.158,0.0
55778.0,STARLINK-5816,PAYLOAD,2023-12-01 21:51:55,14.98329663,0.0002793,69.999,153.9585,260.6018,99.4826,3.0314e-05,2.69e-06,0.0,0 STARLINK-5816,1 55778U 23028AP  23335.91105666  .00000269  00000-0  30314-4 0  9999,2 55778  69.9990 153.9585 0002793 260.6018  99.4826 14.98329663 42393,6950.194,96.107,574.0,570.118,0.0
55778.0,STARLINK-5816,PAYLOAD,2023-12-02 13:53:15,14.98332921,0.0002853,69.9987,152.2748,264.8604,95.223,5.9059e-05,6.12e-06,0.0,0 STARLINK-5816,1 55778U 23028AP  23336.57865290  .00000612  00000-0  59059-4 0  9997,2 55778  69.9987 152.2748 0002853 264.8604  95.2230 14.98332921 42491,6950.184,96.107,574.032,570.066,0.0
55778.0,STARLINK-5816,PAYLOAD,2023-12-02 21:53:55,14.98333335,0.0002844,69.9986,151.4332,264.9757,95.1077,5.9465e-05,6.17e-06,0.0,0 STARLINK-5816,1 55778U 23028AP  23336.91245186  .00000617  00000-0  59465-4 0  9997,2 55778  69.9986 151.4332 0002844 264.9757  95.1077 14.98333335 42544,6950.183,96.107,574.024,570.071,0.0
55778.0,STARLINK-5816,PAYLOAD,2023-12-03 12:19:08,14.98328177,0.000273,69.9987,149.9181,262.0509,98.034,-1.0398e-05,-2.17e-06,0.0,0 STARLINK-5816,1 55778U 23028AP  23337.51329677 -.00000217  00000-0 -10398-4 0  9992,2 55778  69.9987 149.9181 0002730 262.0509  98.0340 14.98328177 42630,6950.199,96.107,573.961,570.166,0.0
55778.0,STARLINK-5816,PAYLOAD,2023-12-03 13:55:17,14.98327641,0.000269,69.9985,149.7501,264.8887,95.1965,-3.8445e-05,-5.52e-06,0.0,0 STARLINK-5816,1 55778U 23028AP  23337.58005827 -.00000552  00000-0 -38445-4 0  9992,2 55778  69.9985 149.7501 0002690 264.8887  95.1965 14.98327641 42643,6950.2,96.107,573.935,570.196,0.0
